MALLIGYONG-1            
1 58400U 23179A   24297.49461848  .00009041  00000+0  40457-3 0  9993
2 58400  97.3820 182.0732 0008130 359.2564   0.8659 15.21483070 51237
